GLOBALSTAR M035         
1 25851U 99037A   24151.41169740 -.00000080  00000+0 -62313-3 0  9991
2 25851  51.9914 188.5843 0013097  82.6921  17.8277 11.04531159 53962
GLOBALSTAR M032         
1 25852U 99037B   24151.84777385 -.00000010  00000+0  18172-2 0  9994
2 25852  51.9983  39.1885 0009330 242.6746 117.3104 11.19053559 91982
GLOBALSTAR M051         
1 25853U 99037C   24151.53572085 -.00000048  00000+0  59858-3 0  9999
2 25853  51.9792 243.9855 0001439 230.8989 129.1694 11.42197954 88685
GLOBALSTAR M030         
1 25854U 99037D   24151.94543870 -.00000112  00000+0 -78536-3 0  9992
2 25854  51.9889  73.4058 0004214  79.4376 280.6916 11.55095448105976
GLOBALSTAR M048         
1 25872U 99041A   24152.22254675 -.00000060  00000+0  26635-3 0  9995
2 25872  51.9329 162.5923 0013746 244.4731 196.9280 11.33846712 81537
GLOBALSTAR M026         
1 25873U 99041B   24151.78361920 -.00000125  00000+0 -22390-2 0  9994
2 25873  52.0028 309.7381 0001048 359.7384 107.5568 11.06835176106149
GLOBALSTAR M043         
1 25874U 99041C   24151.46651064 -.00000114  00000+0 -13655-2 0  9993
2 25874  51.9403 256.7780 0012109  21.1585  59.1779 11.25680421 79778
GLOBALSTAR M028         
1 25875U 99041D   24152.43140993 -.00000070  00000+0  19382-3 0  9990
2 25875  51.9627 251.3703 0062866 322.4676  37.1806 12.50556632142443
